CCSDS_OMM_VERS = 2.0
CREATION_DATE  = 
ORIGINATOR     = 

OBJECT_NAME    = STARLINK-36094
OBJECT_ID      = 2025-281D
CENTER_NAME    = EARTH
REF_FRAME      = TEME
TIME_SYSTEM    = UTC
MEAN_ELEMENT_THEORY = SGP/SGP4

EPOCH          = 2025-12-31T07:44:47.658912
MEAN_MOTION    = 15.50731241
ECCENTRICITY   = .00009816
INCLINATION    = 43.0019
RA_OF_ASC_NODE = 10.9708
ARG_OF_PERICENTER = 245.1982
MEAN_ANOMALY   = 114.8776

EPHEMERIS_TYPE = 0
CLASSIFICATION_TYPE = U
NORAD_CAT_ID   = 66851
ELEMENT_SET_NO = 999
REV_AT_EPOCH   = 571
BSTAR          = .22035114E-2
MEAN_MOTION_DOT = .13184E-2
MEAN_MOTION_DDOT = 0

CCSDS_OMM_VERS = 2.0
CREATION_DATE  = 
ORIGINATOR     = 

OBJECT_NAME    = STARLINK-35992
OBJECT_ID      = 2025-281E
CENTER_NAME    = EARTH
REF_FRAME      = TEME
TIME_SYSTEM    = UTC
MEAN_ELEMENT_THEORY = SGP/SGP4

EPOCH          = 2025-12-31T07:44:17.986560
MEAN_MOTION    = 15.50668225
ECCENTRICITY   = .0001091
INCLINATION    = 42.9962
RA_OF_ASC_NODE = 10.9691
ARG_OF_PERICENTER = 165.2553
MEAN_ANOMALY   = 194.8339

EPHEMERIS_TYPE = 0
CLASSIFICATION_TYPE = U
NORAD_CAT_ID   = 66852
ELEMENT_SET_NO = 999
REV_AT_EPOCH   = 571
BSTAR          = .16991073E-2
MEAN_MOTION_DOT = .100952E-2
MEAN_MOTION_DDOT = 0

CCSDS_OMM_VERS = 2.0
CREATION_DATE  = 
ORIGINATOR     = 

OBJECT_NAME    = STARLINK-35986
OBJECT_ID      = 2025-281F
CENTER_NAME    = EARTH
REF_FRAME      = TEME
TIME_SYSTEM    = UTC
MEAN_ELEMENT_THEORY = SGP/SGP4

EPOCH          = 2025-12-31T07:43:48.008352
MEAN_MOTION    = 15.50678841
ECCENTRICITY   = .00009045
INCLINATION    = 42.9967
RA_OF_ASC_NODE = 10.9657
ARG_OF_PERICENTER = 168.6387
MEAN_ANOMALY   = 191.4494

EPHEMERIS_TYPE = 0
CLASSIFICATION_TYPE = U
NORAD_CAT_ID   = 66853
ELEMENT_SET_NO = 999
REV_AT_EPOCH   = 571
BSTAR          = .17153119E-2
MEAN_MOTION_DOT = .10197E-2
MEAN_MOTION_DDOT = 0

CCSDS_OMM_VERS = 2.0
CREATION_DATE  = 
ORIGINATOR     = 

OBJECT_NAME    = STARLINK-36087
OBJECT_ID      = 2025-281G
CENTER_NAME    = EARTH
REF_FRAME      = TEME
TIME_SYSTEM    = UTC
MEAN_ELEMENT_THEORY = SGP/SGP4

EPOCH          = 2025-12-31T07:43:18.312672
MEAN_MOTION    = 15.50609089
ECCENTRICITY   = .00009061
INCLINATION    = 42.9994
RA_OF_ASC_NODE = 10.9629
ARG_OF_PERICENTER = 253.7900
MEAN_ANOMALY   = 106.2860

EPHEMERIS_TYPE = 0
CLASSIFICATION_TYPE = U
NORAD_CAT_ID   = 66854
ELEMENT_SET_NO = 999
REV_AT_EPOCH   = 571
BSTAR          = .217642E-2
MEAN_MOTION_DOT = .129612E-2
MEAN_MOTION_DDOT = 0

CCSDS_OMM_VERS = 2.0
CREATION_DATE  = 
ORIGINATOR     = 

OBJECT_NAME    = STARLINK-36090
OBJECT_ID      = 2025-281H
CENTER_NAME    = EARTH
REF_FRAME      = TEME
TIME_SYSTEM    = UTC
MEAN_ELEMENT_THEORY = SGP/SGP4

EPOCH          = 2025-12-31T07:42:48.814848
MEAN_MOTION    = 15.50682655
ECCENTRICITY   = .00014618
INCLINATION    = 42.9977
RA_OF_ASC_NODE = 10.9601
ARG_OF_PERICENTER = 125.8695
MEAN_ANOMALY   = 234.2301

EPHEMERIS_TYPE = 0
CLASSIFICATION_TYPE = U
NORAD_CAT_ID   = 66855
ELEMENT_SET_NO = 999
REV_AT_EPOCH   = 571
BSTAR          = .18073734E-2
MEAN_MOTION_DOT = .107554E-2
MEAN_MOTION_DDOT = 0

CCSDS_OMM_VERS = 2.0
CREATION_DATE  = 
ORIGINATOR     = 

OBJECT_NAME    = STARLINK-36072
OBJECT_ID      = 2025-281J
CENTER_NAME    = EARTH
REF_FRAME      = TEME
TIME_SYSTEM    = UTC
MEAN_ELEMENT_THEORY = SGP/SGP4

EPOCH          = 2025-12-31T07:42:19.074240
MEAN_MOTION    = 15.50670317
ECCENTRICITY   = .00008761
INCLINATION    = 42.9975
RA_OF_ASC_NODE = 10.9570
ARG_OF_PERICENTER = 214.2715
MEAN_ANOMALY   = 145.8089

EPHEMERIS_TYPE = 0
CLASSIFICATION_TYPE = U
NORAD_CAT_ID   = 66856
ELEMENT_SET_NO = 999
REV_AT_EPOCH   = 571
BSTAR          = .17202419E-2
MEAN_MOTION_DOT = .102236E-2
MEAN_MOTION_DDOT = 0

CCSDS_OMM_VERS = 2.0
CREATION_DATE  = 
ORIGINATOR     = 

OBJECT_NAME    = STARLINK-36083
OBJECT_ID      = 2025-281K
CENTER_NAME    = EARTH
REF_FRAME      = TEME
TIME_SYSTEM    = UTC
MEAN_ELEMENT_THEORY = SGP/SGP4

EPOCH          = 2025-12-30T10:03:13.093920
MEAN_MOTION    = 15.50606977
ECCENTRICITY   = .00021351
INCLINATION    = 43.0023
RA_OF_ASC_NODE = 16.2298
ARG_OF_PERICENTER = 281.5579
MEAN_ANOMALY   = 78.5041

EPHEMERIS_TYPE = 0
CLASSIFICATION_TYPE = U
NORAD_CAT_ID   = 66857
ELEMENT_SET_NO = 999
REV_AT_EPOCH   = 557
BSTAR          = .1886739E-2
MEAN_MOTION_DOT = .112056E-2
MEAN_MOTION_DDOT = 0

CCSDS_OMM_VERS = 2.0
CREATION_DATE  = 
ORIGINATOR     = 

OBJECT_NAME    = STARLINK-35118
OBJECT_ID      = 2025-281L
CENTER_NAME    = EARTH
REF_FRAME      = TEME
TIME_SYSTEM    = UTC
MEAN_ELEMENT_THEORY = SGP/SGP4

EPOCH          = 2025-12-30T10:02:43.381824
MEAN_MOTION    = 15.50615586
ECCENTRICITY   = .0002209
INCLINATION    = 43.0022
RA_OF_ASC_NODE = 16.2247
ARG_OF_PERICENTER = 278.9026
MEAN_ANOMALY   = 81.1584

EPHEMERIS_TYPE = 0
CLASSIFICATION_TYPE = U
NORAD_CAT_ID   = 66858
ELEMENT_SET_NO = 999
REV_AT_EPOCH   = 557
BSTAR          = .20635494E-2
MEAN_MOTION_DOT = .122797E-2
MEAN_MOTION_DDOT = 0

CCSDS_OMM_VERS = 2.0
CREATION_DATE  = 
ORIGINATOR     = 

OBJECT_NAME    = STARLINK-35646
OBJECT_ID      = 2025-281M
CENTER_NAME    = EARTH
REF_FRAME      = TEME
TIME_SYSTEM    = UTC
MEAN_ELEMENT_THEORY = SGP/SGP4

EPOCH          = 2025-12-30T10:02:13.793280
MEAN_MOTION    = 15.50608178
ECCENTRICITY   = .00022498
INCLINATION    = 43.0018
RA_OF_ASC_NODE = 16.2247
ARG_OF_PERICENTER = 281.8895
MEAN_ANOMALY   = 78.1713

EPHEMERIS_TYPE = 0
CLASSIFICATION_TYPE = U
NORAD_CAT_ID   = 66859
ELEMENT_SET_NO = 999
REV_AT_EPOCH   = 557
BSTAR          = .18648945E-2
MEAN_MOTION_DOT = .110742E-2
MEAN_MOTION_DDOT = 0

CCSDS_OMM_VERS = 2.0
CREATION_DATE  = 
ORIGINATOR     = 

OBJECT_NAME    = STARLINK-35987
OBJECT_ID      = 2025-281N
CENTER_NAME    = EARTH
REF_FRAME      = TEME
TIME_SYSTEM    = UTC
MEAN_ELEMENT_THEORY = SGP/SGP4

EPOCH          = 2025-12-31T01:27:20.148768
MEAN_MOTION    = 15.50624867
ECCENTRICITY   = .00003835
INCLINATION    = 42.9966
RA_OF_ASC_NODE = 12.4433
ARG_OF_PERICENTER = 199.8571
MEAN_ANOMALY   = 160.2274

EPHEMERIS_TYPE = 0
CLASSIFICATION_TYPE = U
NORAD_CAT_ID   = 66860
ELEMENT_SET_NO = 999
REV_AT_EPOCH   = 567
BSTAR          = .19179429E-2
MEAN_MOTION_DOT = .114014E-2
MEAN_MOTION_DDOT = 0

CCSDS_OMM_VERS = 2.0
CREATION_DATE  = 
ORIGINATOR     = 

OBJECT_NAME    = STARLINK-35991
OBJECT_ID      = 2025-281P
CENTER_NAME    = EARTH
REF_FRAME      = TEME
TIME_SYSTEM    = UTC
MEAN_ELEMENT_THEORY = SGP/SGP4

EPOCH          = 2025-12-30T14:00:01.999008
MEAN_MOTION    = 15.50642872
ECCENTRICITY   = .000119
INCLINATION    = 43.0005
RA_OF_ASC_NODE = 15.2494
ARG_OF_PERICENTER = 270.7438
MEAN_ANOMALY   = 296.0618

EPHEMERIS_TYPE = 0
CLASSIFICATION_TYPE = U
NORAD_CAT_ID   = 66861
ELEMENT_SET_NO = 999
REV_AT_EPOCH   = 425
BSTAR          = -.16471E-2
MEAN_MOTION_DOT = -.96008E-3
MEAN_MOTION_DDOT = 0

CCSDS_OMM_VERS = 2.0
CREATION_DATE  = 
ORIGINATOR     = 

OBJECT_NAME    = STARLINK-35974
OBJECT_ID      = 2025-281Q
CENTER_NAME    = EARTH
REF_FRAME      = TEME
TIME_SYSTEM    = UTC
MEAN_ELEMENT_THEORY = SGP/SGP4

EPOCH          = 2025-12-31T07:40:20.404704
MEAN_MOTION    = 15.50618096
ECCENTRICITY   = .00006067
INCLINATION    = 43.0000
RA_OF_ASC_NODE = 10.9466
ARG_OF_PERICENTER = 224.2355
MEAN_ANOMALY   = 135.8457

EPHEMERIS_TYPE = 0
CLASSIFICATION_TYPE = U
NORAD_CAT_ID   = 66862
ELEMENT_SET_NO = 999
REV_AT_EPOCH   = 571
BSTAR          = .22967147E-2
MEAN_MOTION_DOT = .136969E-2
MEAN_MOTION_DDOT = 0

